GLOBALSTAR M084 [+]     
1 38040U 11080A   24006.87337549 -.00000068  00000+0  20038-3 0  9993
2 38040  51.9980 213.8110 0000943  68.9851  33.1333 12.62270016556074
GLOBALSTAR M080 [+]     
1 38041U 11080B   24006.76295778 -.00000073  00000+0  17186-3 0  9995
2 38041  52.0032 215.5695 0000806  60.2913  19.5094 12.62268199556187
GLOBALSTAR M082 [+]     
1 38042U 11080C   24006.87020741 -.00000085  00000+0  10245-3 0  9996
2 38042  52.0053 170.6300 0001682 103.9377  44.4483 12.62265121556908
GLOBALSTAR M092 [+]     
1 38043U 11080D   24007.08144215 -.00000085  00000+0  10736-3 0  9999
2 38043  52.0076 260.3421 0001045  47.4690  99.0372 12.62240485555591
GLOBALSTAR M090 [+]     
1 38044U 11080E   24007.42208081 -.00000100  00000+0  21745-4 0  9991
2 38044  51.9865 163.4363 0001279 107.7339 270.4166 12.62265267557136
GLOBALSTAR M086 [+]     
1 38045U 11080F   24007.44865750 -.00000092  00000+0  63665-4 0  9993
2 38045  51.9878 163.8662 0000885 159.6499 218.4674 12.62266372557147
GLOBALSTAR M097 [+]     
1 39072U 13005A   24006.91656012 -.00000121  00000+0 -98277-4 0  9994
2 39072  52.0055  79.4971 0000872 139.7899 220.3032 12.62273448504224
GLOBALSTAR M093 [+]     
1 39073U 13005B   24006.57321696 -.00000110  00000+0 -35561-4 0  9999
2 39073  51.9820  74.6886 0000909 149.5729 210.5190 12.62259660504133
